{"version": 0.6, "generator": "Overpass API 0.7.62.1 084b4234", "osm3s": {"timestamp_osm_base": "2024-11-21T14:09:43Z", "copyright": "The data included in this document is from www.openstreetmap.org. The data is made available under ODbL."}, "elements": [{"type": "node", "id": 469917297, "lat": 39.9485309, "lon": -75.167004, "tags": {"addr:city": "Philadelphia", "addr:state": "PA", "name": "15th-16th & Locust", "network": "PATCO", "operator": "PATCO", "platforms": "1", "public_transport": "station", "railway": "station", "station": "subway", "subway": "yes", "wheelchair": "yes", "wikidata": "Q4551078", "wikipedia": "en:15\u201316th & Locust station"}}, {"type": "node", "id": 469917298, "lat": 39.9472633, "lon": -75.1568659, "tags": {"addr:city": "Philadelphia", "name": "9th-10th & Locust", "network": "PATCO", "operator": "PATCO", "platforms": "1", "public_transport": "station", "railway": "station", "station": "subway", "subway": "yes", "wheelchair": "yes", "wikidata": "Q4646737", "wikipedia": "en:9\u201310th & Locust station"}}, {"type": "node", "id": 471026103, "lat": 39.9478496, "lon": -75.161588, "tags": {"addr:city": "Philadelphia", "addr:postcode": "19107", "name": "12th-13th & Locust", "network": "PATCO", "operator": "PATCO", "platforms": "1", "public_transport": "station", "railway": "station", "station": "subway", "subway": "yes", "wheelchair": "no", "wikidata": "Q4548965", "wikipedia": "en:12\u201313th & Locust station"}}, {"type": "node", "id": 650938316, "lat": 39.9627056, "lon": -75.2467035, "tags": {"name": "63rd Street", "network": "SEPTA", "operator": "SEPTA", "public_transport": "station", "railway": "station", "station": "subway", "subway": "yes"}}, {"type": "node", "id": 650959043, "lat": 39.9609881, "lon": -75.2328616, "tags": {"name": "56th Street", "network": "SEPTA", "network:wikidata": "Q2037863", "operator": "SEPTA", "public_transport": "station", "railway": "station", "station": "subway", "subway": "yes", "train": "yes", "wikidata": "Q4640769"}}, {"type": "node", "id": 650960111, "lat": 39.9586542, "lon": -75.2140058, "tags": {"name": "46th Street", "operator": "SEPTA", "public_transport": "station", "railway": "station", "station": "subway", "subway": "yes", "wheelchair": "yes"}}, {"type": "node", "id": 775915931, "lat": 39.9441504, "lon": -75.1653951, "tags": {"addr:city": "Philadelphia", "addr:housenumber": "500", "addr:street": "South Broad Street", "name": "Lombard-South", "network": "SEPTA", "operator": "SEPTA", "platforms": "1", "public_transport": "station", "railway": "station", "railway:position": "mi:7.40", "station": "subway", "subway": "yes", "wheelchair": "no", "wikidata": "Q6669414", "wikipedia": "en:Lombard\u2013South station"}}, {"type": "node", "id": 775915932, "lat": 39.9362304, "lon": -75.1671154, "tags": {"addr:housenumber": "1200", "addr:street": "South Broad Street", "name": "Ellsworth-Federal", "network": "SEPTA", "operator": "SEPTA", "platforms": "1", "public_transport": "station", "railway": "station", "railway:position": "mi:7.95", "station": "subway", "subway": "yes", "wheelchair": "no", "wikidata": "Q11681426", "wikipedia": "en:Ellsworth\u2013Federal station"}}, {"type": "node", "id": 775915933, "lat": 39.9298966, "lon": -75.1684917, "tags": {"addr:city": "Philadelphia", "name": "Tasker-Morris", "network": "SEPTA", "operator": "SEPTA", "platforms": "1", "public_transport": "station", "railway": "station", "railway:position": "mi:8.40", "station": "subway", "subway": "yes", "wheelchair": "no", "wikidata": "Q7687362", "wikipedia": "en:Tasker\u2013Morris station"}}, {"type": "node", "id": 775915935, "lat": 39.9237275, "lon": -75.1695817, "tags": {"addr:city": "Philadelphia", "name": "Snyder", "network": "SEPTA", "operator": "SEPTA", "platforms": "1", "public_transport": "station", "railway": "station", "railway:position": "mi:8.78", "station": "subway", "subway": "yes", "wikidata": "Q7548885", "wikipedia": "en:Snyder station"}}, {"type": "node", "id": 775915939, "lat": 39.9059917, "lon": -75.1731127, "tags": {"addr:city": "Philadelphia", "addr:housenumber": "3600", "addr:street": "South Broad Street", "internet_access": "no", "name": "NRG", "name:en": "NRG", "network": "SEPTA", "old_name": "Pattison", "operator": "SEPTA", "platforms": "2", "public_transport": "station", "railway": "station", "station": "subway", "subway": "yes", "wikidata": "Q4654508", "wikipedia": "en:NRG station"}}, {"type": "node", "id": 775922743, "lat": 40.0387963, "lon": -75.1447438, "tags": {"addr:city": "Philadelphia", "addr:housenumber": "5600", "addr:state": "PA", "addr:street": "North Broad Street", "name": "Olney Transportation Center", "operator": "SEPTA", "platforms": "2", "public_transport": "station", "railway": "station", "railway:position": "mi:0.76", "short_name": "Olney T.C.", "station": "subway", "subway": "yes", "wheelchair": "yes", "wikidata": "Q7088461", "wikipedia": "en:Olney Transportation Center"}}, {"type": "node", "id": 775922744, "lat": 40.0298125, "lon": -75.1467057, "tags": {"addr:city": "Philadelphia", "addr:housenumber": "5100", "addr:state": "PA", "addr:street": "North Broad Street", "name": "Logan", "network": "SEPTA", "network:wikidata": "Q2037863", "operator": "SEPTA", "public_transport": "station", "railway": "station", "railway:position": "mi:1.38", "station": "subway", "subway": "yes", "train": "yes", "wikidata": "Q6666919", "wikipedia": "en:Logan station"}}, {"type": "node", "id": 775922745, "lat": 40.0245715, "lon": -75.1478543, "tags": {"addr:city": "Philadelphia", "addr:housenumber": "4700", "addr:state": "PA", "addr:street": "North Broad Street", "name": "Wyoming", "network": "SEPTA", "network:wikidata": "Q2037863", "operator": "SEPTA", "platforms": "2", "public_transport": "station", "railway": "station", "railway:position": "mi:1.75", "station": "subway", "subway": "yes", "train": "yes", "wikidata": "Q5859777", "wikipedia": "en:Wyoming station (SEPTA)"}}, {"type": "node", "id": 775922746, "lat": 40.0175785, "lon": -75.1493881, "tags": {"addr:housenumber": "4200", "addr:street": "North Broad Street", "name": "Hunting Park", "network": "SEPTA", "network:wikidata": "Q2037863", "operator": "SEPTA", "platforms": "2", "public_transport": "station", "railway": "station", "railway:position": "mi:2.20", "station": "subway", "subway": "yes", "train": "yes", "wikidata": "Q389072", "wikipedia": "en:Hunting Park station"}}, {"type": "node", "id": 775922747, "lat": 40.0092413, "lon": -75.1512083, "tags": {"addr:city": "Philadelphia", "addr:housenumber": "3700", "addr:postcode": "19140", "addr:state": "PA", "addr:street": "North Broad Street", "name": "Erie", "network": "SEPTA", "operator": "SEPTA", "public_transport": "station", "railway": "station", "railway:position": "mi:2.82", "station": "subway", "subway": "yes", "wikidata": "Q2885954", "wikipedia": "en:Erie station (SEPTA)"}}, {"type": "node", "id": 775922748, "lat": 40.0015922, "lon": -75.1528751, "tags": {"name": "Allegheny", "network": "SEPTA", "network:wikidata": "Q2037863", "operator": "septa", "public_transport": "station", "railway": "station", "railway:position": "mi:3.34", "station": "subway", "subway": "yes", "train": "yes"}}, {"type": "node", "id": 775922749, "lat": 39.9946558, "lon": -75.1543919, "tags": {"addr:city": "Philadelphia", "addr:housenumber": "2700", "addr:state": "PA", "addr:street": "North Broad Street", "name": "North Philadelphia", "network": "SEPTA", "network:wikidata": "Q2037863", "operator": "SEPTA", "platforms": "2", "public_transport": "station", "railway": "station", "railway:position": "mi:3.79", "station": "subway", "subway": "yes", "train": "yes", "wheelchair": "yes", "wikidata": "Q7056322", "wikipedia": "en:North Philadelphia station (Broad Street Line)"}}, {"type": "node", "id": 775922751, "lat": 39.9785703, "lon": -75.1579015, "tags": {"addr:city": "Philadelphia", "addr:housenumber": "1700", "addr:state": "PA", "addr:street": "North Broad Street", "name": "Cecil B. Moore", "network": "SEPTA", "network:wikidata": "Q2037863", "operator": "SEPTA", "public_transport": "station", "railway": "station", "railway:position": "mi:4.96", "station": "subway", "subway": "yes", "train": "yes", "wheelchair": "yes", "wikidata": "Q5055946", "wikipedia": "en:Cecil B. Moore station"}}, {"type": "node", "id": 775922752, "lat": 39.9714988, "lon": -75.1594598, "tags": {"addr:city": "Philadelphia", "addr:street": "North Broad Street", "name": "Girard", "network": "SEPTA", "operator": "SEPTA", "public_transport": "station", "railway": "station", "railway:position": "mi:5.47", "station": "subway", "subway": "yes", "wheelchair": "yes", "wikidata": "Q5564139", "wikipedia": "en:Girard station (Broad Street Line)"}}, {"type": "node", "id": 775922753, "lat": 39.9668932, "lon": -75.1604429, "tags": {"addr:city": "Philadelphia", "addr:street": "North Broad Street", "name": "Fairmount", "network": "SEPTA", "network:wikidata": "Q2037863", "operator": "SEPTA", "public_transport": "station", "railway": "station", "railway:position": "mi:5.79", "station": "subway", "subway": "yes", "train": "yes", "wheelchair": "no", "wikidata": "Q5430629", "wikipedia": "en:Fairmount station (SEPTA)"}}, {"type": "node", "id": 775922755, "lat": 39.9624091, "lon": -75.1614309, "tags": {"addr:city": "Philadelphia", "addr:street": "North Broad Street", "name": "Spring Garden", "network": "SEPTA", "network:wikidata": "Q2037863", "operator": "SEPTA", "public_transport": "station", "railway": "station", "railway:position": "mi:6.10", "station": "subway", "subway": "yes", "train": "yes", "wheelchair": "yes", "wikidata": "Q7580508", "wikipedia": "en:Spring Garden station (Broad Street Line)"}}, {"type": "node", "id": 775922756, "lat": 39.9568762, "lon": -75.1626318, "tags": {"name": "Race-Vine", "network": "SEPTA", "operator": "SEPTA", "public_transport": "station", "railway": "station", "railway:position": "mi:6.47", "station": "subway", "subway": "yes", "wheelchair": "no", "wikidata": "Q7279050"}}, {"type": "node", "id": 1118107614, "lat": 40.0418091, "lon": -75.1368239, "tags": {"name": "Fern Rock Transportation Center", "network": "SEPTA", "operator": "SEPTA", "public_transport": "station", "railway": "station", "railway:position": "mi:0.15", "short_name": "Fern Rock T.C.", "station": "subway", "subway": "yes", "wikidata": "Q5444482", "wikipedia": "en:Fern Rock Transportation Center"}}, {"type": "node", "id": 1118188467, "lat": 39.9964906, "lon": -75.1134652, "tags": {"addr:city": "Philadelphia", "addr:housenumber": "3200", "addr:state": "PA", "addr:street": "Kensington Avenue", "name": "Allegheny", "network": "SEPTA", "operator": "Southeastern Pennsylvania Transportation Authority", "operator:wikidata": "Q2037863", "platforms": "1", "public_transport": "station", "railway": "station", "station": "subway", "subway": "yes", "wheelchair": "yes", "wikidata": "Q4731270", "wikipedia": "en:Allegheny station (Market\u2013Frankford Line)"}}, {"type": "node", "id": 1118188478, "lat": 39.988866, "lon": -75.1272829, "tags": {"addr:city": "Philadelphia", "addr:housenumber": "2600", "addr:state": "PA", "addr:street": "Kensington Avenue", "name": "Huntingdon", "network": "SEPTA", "operator": "SEPTA", "platforms": "1", "public_transport": "station", "railway": "station", "station": "subway", "subway": "yes", "wheelchair": "yes", "wikidata": "Q5945102", "wikipedia": "en:Huntingdon station (SEPTA)"}}, {"type": "node", "id": 1118188481, "lat": 39.9852156, "lon": -75.1321258, "tags": {"addr:city": "Philadelphia", "addr:housenumber": "2300", "addr:state": "PA", "addr:street": "North Front Street", "name": "York-Dauphin", "network": "SEPTA", "operator": "SEPTA", "public_transport": "station", "railway": "station", "station": "subway", "subway": "yes", "wheelchair": "yes", "wikidata": "Q8055826", "wikipedia": "en:York\u2013Dauphin station"}}, {"type": "node", "id": 1118188483, "lat": 39.968916, "lon": -75.1362338, "tags": {"addr:city": "Philadelphia", "addr:housenumber": "1200", "addr:state": "PA", "addr:street": "North Front Street", "name": "Girard", "network": "SEPTA", "network:wikidata": "Q2037863", "operator": "SEPTA", "platforms": "1", "public_transport": "station", "railway": "station", "station": "subway", "subway": "yes", "train": "yes", "wheelchair": "yes", "wikidata": "Q5564142", "wikipedia": "en:Girard station (Market\u2013Frankford Line)"}}, {"type": "node", "id": 1118188499, "lat": 39.9785347, "lon": -75.1335538, "tags": {"addr:city": "Philadelphia", "addr:housenumber": "1900", "addr:state": "PA", "addr:street": "North Front Street", "name": "Berks", "network": "SEPTA", "network:wikidata": "Q2037863", "operator": "SEPTA", "platforms": "1", "public_transport": "station", "railway": "station", "station": "subway", "subway": "yes", "train": "yes", "wheelchair": "yes", "wikidata": "Q4892229", "wikipedia": "en:Berks station"}}, {"type": "node", "id": 1118188504, "lat": 40.0163655, "lon": -75.0840679, "tags": {"name": "Arrott Transportation Center", "network": "SEPTA", "old_name": "Margaret-Orthodox", "operator": "septa", "public_transport": "station", "railway": "station", "short_name": "Arrott T.C.", "station": "subway", "subway": "yes", "wikidata": "Q3290544"}}, {"type": "node", "id": 1118188518, "lat": 40.0059983, "lon": -75.0960928, "tags": {"name": "Erie-Torresdale", "network": "SEPTA", "operator": "septa", "public_transport": "station", "railway": "station", "station": "subway", "subway": "yes", "wikidata": "Q11681527"}}, {"type": "node", "id": 1118188524, "lat": 40.0105932, "lon": -75.088958, "tags": {"name": "Church", "network": "SEPTA", "operator": "septa", "public_transport": "station", "railway": "station", "station": "subway", "subway": "yes", "wikidata": "Q5116544"}}, {"type": "node", "id": 1118188527, "lat": 39.9915394, "lon": -75.1224276, "tags": {"addr:city": "Philadelphia", "addr:housenumber": "2800", "addr:state": "PA", "addr:street": "Kensington Avenue", "name": "Somerset", "network": "SEPTA", "operator": "SEPTA", "platforms": "1", "public_transport": "station", "railway": "station", "station": "subway", "subway": "yes", "wheelchair": "yes", "wikidata": "Q7559805", "wikipedia": "en:Somerset station (SEPTA)"}}, {"type": "node", "id": 1118188530, "lat": 40.0002153, "lon": -75.1066243, "tags": {"addr:city": "Philadelphia", "addr:housenumber": "3500", "addr:state": "PA", "addr:street": "Kensington Avenue", "name": "Tioga", "network": "SEPTA", "operator": "SEPTA", "platforms": "1", "public_transport": "station", "railway": "station", "station": "subway", "subway": "yes", "wheelchair": "yes", "wikidata": "Q7808699", "wikipedia": "en:Tioga station"}}, {"type": "node", "id": 1118209246, "lat": 39.9559058, "lon": -75.1532615, "tags": {"addr:city": "Philadelphia", "name": "Chinatown", "network": "SEPTA", "network:wikidata": "Q2037863", "operator": "SEPTA", "public_transport": "station", "railway": "station", "railway:position": "mi:6.62", "station": "subway", "subway": "yes", "train": "yes", "wikidata": "Q5100161", "wikipedia": "en:Chinatown station (SEPTA)"}}, {"type": "node", "id": 1685402978, "lat": 39.9600003, "lon": -75.2248623, "tags": {"elevator": "yes", "name": "52nd Street", "network": "SEPTA", "network:wikidata": "Q2037863", "operator": "SEPTA", "public_transport": "station", "railway": "station", "station": "subway", "subway": "yes", "train": "yes", "wheelchair": "yes", "wikidata": "Q2880330"}}, {"type": "node", "id": 4179747391, "lat": 39.9559238, "lon": -75.1914953, "tags": {"name": "34th Street", "network": "SEPTA", "network:wikidata": "Q2037863", "operator": "SEPTA", "platforms": "1", "public_transport": "station", "railway": "station", "station": "subway", "subway": "yes", "train": "yes", "wheelchair": "no", "wikidata": "Q4635453"}}, {"type": "node", "id": 4179752984, "lat": 39.9619732, "lon": -75.2408051, "tags": {"name": "60th Street", "network": "SEPTA", "network:wikidata": "Q2037863", "operator": "SEPTA", "public_transport": "station", "railway": "station", "station": "subway", "subway": "yes", "train": "yes", "wheelchair": "yes", "wikidata": "Q4641725"}}, {"type": "node", "id": 5358059677, "lat": 39.9550324, "lon": -75.18347, "tags": {"name": "30th Street", "network": "SEPTA", "network:wikidata": "Q2037863", "operator": "SEPTA", "public_transport": "station", "railway": "station", "station": "subway", "subway": "yes", "train": "yes", "tram": "yes", "wikidata": "Q4634655"}}, {"type": "node", "id": 5358093543, "lat": 40.0231608, "lon": -75.0778115, "tags": {"name": "Frankford Transportation Center", "network": "SEPTA", "public_transport": "station", "railway": "station", "short_name": "Frankford T.C.", "station": "subway", "subway": "yes", "wikidata": "Q5490782"}}, {"type": "node", "id": 5358095953, "lat": 39.9605274, "lon": -75.1403778, "tags": {"addr:housenumber": "600", "addr:street": "North Front Street", "name": "Spring Garden", "network": "SEPTA", "network:wikidata": "Q2037863", "public_transport": "station", "railway": "station", "station": "subway", "subway": "yes", "train": "yes", "wikidata": "Q9079459", "wikipedia": "en:Spring Garden station (Market\u2013Frankford Line)"}}, {"type": "node", "id": 5372039289, "lat": 39.9511591, "lon": -75.1537918, "tags": {"name": "8th Street", "network": "SEPTA", "network:wikidata": "Q2037863", "public_transport": "station", "railway": "station", "station": "subway", "subway": "yes", "train": "yes", "wheelchair": "yes", "wikidata": "Q8255403"}}, {"type": "node", "id": 5372039290, "lat": 39.9512871, "lon": -75.1535469, "tags": {"name": "8th & Market", "network": "SEPTA", "network:wikidata": "Q2037863", "public_transport": "station", "railway": "station", "railway:position": "mi:6.93", "station": "subway", "subway": "yes", "train": "yes", "wheelchair": "yes", "wikidata": "Q8255403"}}, {"type": "node", "id": 5372090015, "lat": 39.9499946, "lon": -75.1438048, "tags": {"name": "2nd Street", "network": "SEPTA", "network:wikidata": "Q2037863", "public_transport": "station", "railway": "station", "station": "subway", "subway": "yes", "train": "yes", "wikidata": "Q4633918", "wikipedia": "en:2nd Street station (SEPTA)"}}, {"type": "node", "id": 5372090220, "lat": 39.9517977, "lon": -75.1583456, "tags": {"name": "11th Street", "network": "SEPTA", "network:wikidata": "Q2037863", "public_transport": "station", "railway": "station", "station": "subway", "subway": "yes", "train": "yes", "wheelchair": "no", "wikidata": "Q4547989", "wikipedia": "en:11th Street station (SEPTA)"}}, {"type": "node", "id": 5372093802, "lat": 39.9505503, "lon": -75.1488907, "tags": {"addr:city": "Philadelphia", "addr:postcode": "19106", "addr:state": "PA", "addr:street": "5th Street", "name": "5th Street", "network": "SEPTA", "network:wikidata": "Q2037863", "public_transport": "station", "railway": "station", "station": "subway", "subway": "yes", "train": "yes", "wikidata": "Q4641464", "wikipedia": "en:5th Street/Independence Hall station"}}, {"type": "node", "id": 5372098384, "lat": 39.952184, "lon": -75.1615338, "tags": {"name": "13th Street", "network": "SEPTA", "network:wikidata": "Q2037863", "public_transport": "station", "railway": "station", "station": "subway", "subway": "yes", "train": "yes", "tram": "yes", "wikidata": "Q4549546", "wikipedia": "en:13th Street station (SEPTA)"}}, {"type": "node", "id": 5372105611, "lat": 39.9526346, "lon": -75.1651258, "tags": {"name": "15th Street", "network": "SEPTA", "public_transport": "station", "railway": "station", "station": "subway", "subway": "yes", "tram": "yes", "wheelchair": "yes", "wikidata": "Q4551050", "wikipedia": "en:15th Street station (SEPTA)"}}, {"type": "node", "id": 5372108003, "lat": 39.9572587, "lon": -75.2018813, "tags": {"addr:city": "Philadelphia", "addr:postcode": "19104", "name": "40th Street", "network": "SEPTA", "operator": "SEPTA", "public_transport": "station", "railway": "station", "station": "subway", "subway": "yes", "wikidata": "Q4637500"}}, {"type": "node", "id": 5377305092, "lat": 39.9488158, "lon": -75.1643881, "tags": {"addr:city": "Philadelphia", "addr:housenumber": "200", "addr:state": "PA", "addr:street": "South Broad Street", "name": "Walnut-Locust", "network": "SEPTA", "operator": "SEPTA", "platforms": "2", "public_transport": "station", "railway": "station", "railway:position": "mi:7.07", "station": "subway", "subway": "yes", "wheelchair": "yes", "wikidata": "Q7963710", "wikipedia": "en:Walnut\u2013Locust station"}}, {"type": "node", "id": 5377316453, "lat": 39.9531287, "lon": -75.1642021, "tags": {"addr:city": "Philadelphia", "addr:housenumber": "1500", "addr:postcode": "19107", "addr:state": "PA", "addr:street": "Market Street", "name": "City Hall", "network": "SEPTA", "network:wikidata": "Q2037863", "operator": "SEPTA", "public_transport": "station", "railway": "station", "railway:position": "mi:6.82", "station": "subway", "subway": "yes", "train": "yes", "wheelchair": "no", "wikidata": "Q5123198", "wikipedia": "en:City Hall station (SEPTA)"}}, {"type": "node", "id": 5460903183, "lat": 39.9169429, "lon": -75.1710579, "tags": {"addr:housenumber": "2700", "addr:street": "South Broad Street", "name": "Oregon", "network": "SEPTA", "network:wikidata": "Q2037863", "operator": "SEPTA", "public_transport": "station", "railway": "station", "railway:position": "mi:9.31", "station": "subway", "subway": "yes", "train": "yes", "wikidata": "Q7101029", "wikipedia": "en:Oregon station"}}, {"type": "node", "id": 5529504457, "lat": 39.9870963, "lon": -75.1560417, "tags": {"addr:city": "Philadelphia", "addr:street": "North Broad Street", "name": "Susquehanna-Dauphin", "network": "SEPTA", "operator": "Septa;SEPTA", "public_transport": "station", "railway": "station", "railway:position": "mi:4.37", "station": "subway", "subway": "yes", "wheelchair": "no", "wikidata": "Q11704150", "wikipedia": "en:Susquehanna\u2013Dauphin station"}}, {"type": "node", "id": 7194028327, "lat": 39.9509527, "lon": -75.1536208, "tags": {"name": "8th & Market", "network": "PATCO", "public_transport": "station", "railway": "station", "station": "subway", "subway": "yes", "wheelchair": "yes", "wikidata": "Q8255403"}}]}